{"type": "FeatureCollection", "features": [ {"type": "Feature", "properties": {"norad_id": 66810, "name": "STARLINK-36046", "group": "last-30-days", "lat": -31.354313056664147, "lon": 152.9779655762914, "alt_km": 406.4436516759588, "timestamp": "2025-12-22T08:58:19.047404+00:00", "meta": {"OBJECT_NAME": "STARLINK-36046", "OBJECT_ID": "2025-278V", "EPOCH": "2025-12-22T04:00:01.998720", "MEAN_MOTION": 15.55145477, "ECCENTRICITY": 0.0001363, "INCLINATION": 42.9989, "RA_OF_ASC_NODE": 195.0335, "ARG_OF_PERICENTER": 260.1516, "MEAN_ANOMALY": 329.4085, "EPHEMERIS_TYPE": 0, "CLASSIFICATION_TYPE": "U", "NORAD_CAT_ID": 66810, "ELEMENT_SET_NO": 999, "REV_AT_EPOCH": 424, "BSTAR": -0.033223, "MEAN_MOTION_DOT": -0.02051302, "MEAN_MOTION_DDOT": 0}, "tle": {"line1": "1 66810U 25278V   25356.16668980 -.02051302  00000+0 -33223-1 0  9998", "line2": "2 66810  42.9989 195.0335 0001363 260.1516 329.4085 15.55145477  4249"}}, "geometry": {"type": "Point", "coordinates": [152.9779655762914, -31.354313056664147]}}, {"type": "Feature", "properties": {"norad_id": 66811, "name": "STARLINK-36045", "group": "last-30-days", "lat": -30.353808060573552, "lon": 154.87245069614684, "alt_km": 406.48617631538764, "timestamp": "2025-12-22T08:58:19.047414+00:00", "meta": {"OBJECT_NAME": "STARLINK-36045", "OBJECT_ID": "2025-278W", "EPOCH": "2025-12-22T04:00:01.998720", "MEAN_MOTION": 15.55131727, "ECCENTRICITY": 0.000128, "INCLINATION": 42.999, "RA_OF_ASC_NODE": 195.0289, "ARG_OF_PERICENTER": 257.2162, "MEAN_ANOMALY": 334.2635, "EPHEMERIS_TYPE": 0, "CLASSIFICATION_TYPE": "U", "NORAD_CAT_ID": 66811, "ELEMENT_SET_NO": 999, "REV_AT_EPOCH": 447, "BSTAR": -0.032708, "MEAN_MOTION_DOT": -0.0202189, "MEAN_MOTION_DDOT": 0}, "tle": {"line1": "1 66811U 25278W   25356.16668980 -.02021890  00000+0 -32708-1 0  9995", "line2": "2 66811  42.9990 195.0289 0001280 257.2162 334.2635 15.55131727  4475"}}, "geometry": {"type": "Point", "coordinates": [154.87245069614684, -30.353808060573552]}}, {"type": "Feature", "properties": {"norad_id": 66812, "name": "STARLINK-36054", "group": "last-30-days", "lat": -28.270322947667392, "lon": 158.5515802321054, "alt_km": 406.3990967422442, "timestamp": "2025-12-22T08:58:19.047424+00:00", "meta": {"OBJECT_NAME": "STARLINK-36054", "OBJECT_ID": "2025-278X", "EPOCH": "2025-12-22T04:00:01.998720", "MEAN_MOTION": 15.55125549, "ECCENTRICITY": 0.0001302, "INCLINATION": 42.9993, "RA_OF_ASC_NODE": 195.0194, "ARG_OF_PERICENTER": 257.4459, "MEAN_ANOMALY": 337.8723, "EPHEMERIS_TYPE": 0, "CLASSIFICATION_TYPE": "U", "NORAD_CAT_ID": 66812, "ELEMENT_SET_NO": 999, "REV_AT_EPOCH": 447, "BSTAR": -0.032586, "MEAN_MOTION_DOT": -0.02014729, "MEAN_MOTION_DDOT": 0}, "tle": {"line1": "1 66812U 25278X   25356.16668980 -.02014729  00000+0 -32586-1 0  9993", "line2": "2 66812  42.9993 195.0194 0001302 257.4459 337.8723 15.55125549  4472"}}, "geometry": {"type": "Point", "coordinates": [158.5515802321054, -28.270322947667392]}}, {"type": "Feature", "properties": {"norad_id": 66813, "name": "STARLINK-36042", "group": "last-30-days", "lat": -27.190697313758097, "lon": 160.33699279947402, "alt_km": 406.31553736595924, "timestamp": "2025-12-22T08:58:19.047433+00:00", "meta": {"OBJECT_NAME": "STARLINK-36042", "OBJECT_ID": "2025-278Y", "EPOCH": "2025-12-22T04:00:01.998720", "MEAN_MOTION": 15.55147162, "ECCENTRICITY": 0.0001269, "INCLINATION": 42.9994, "RA_OF_ASC_NODE": 195.0133, "ARG_OF_PERICENTER": 260.1127, "MEAN_ANOMALY": 337.1178, "EPHEMERIS_TYPE": 0, "CLASSIFICATION_TYPE": "U", "NORAD_CAT_ID": 66813, "ELEMENT_SET_NO": 999, "REV_AT_EPOCH": 447, "BSTAR": -0.033299, "MEAN_MOTION_DOT": -0.02055542, "MEAN_MOTION_DDOT": 0}, "tle": {"line1": "1 66813U 25278Y   25356.16668980 -.02055542  00000+0 -33299-1 0  9994", "line2": "2 66813  42.9994 195.0133 0001269 260.1127 337.1178 15.55147162  4474"}}, "geometry": {"type": "Point", "coordinates": [160.33699279947402, -27.190697313758097]}}, {"type": "Feature", "properties": {"norad_id": 66814, "name": "STARLINK-35984", "group": "last-30-days", "lat": -20.3027822347126, "lon": 170.37186840650418, "alt_km": 405.9428196176341, "timestamp": "2025-12-22T08:58:19.047446+00:00", "meta": {"OBJECT_NAME": "STARLINK-35984", "OBJECT_ID": "2025-278Z", "EPOCH": "2025-12-22T04:00:01.998720", "MEAN_MOTION": 15.55145154, "ECCENTRICITY": 0.000135, "INCLINATION": 42.9991, "RA_OF_ASC_NODE": 194.9844, "ARG_OF_PERICENTER": 259.187, "MEAN_ANOMALY": 349.5451, "EPHEMERIS_TYPE": 0, "CLASSIFICATION_TYPE": "U", "NORAD_CAT_ID": 66814, "ELEMENT_SET_NO": 999, "REV_AT_EPOCH": 456, "BSTAR": -0.033218, "MEAN_MOTION_DOT": -0.02050964, "MEAN_MOTION_DDOT": 0}, "tle": {"line1": "1 66814U 25278Z   25356.16668980 -.02050964  00000+0 -33218-1 0  9999", "line2": "2 66814  42.9991 194.9844 0001350 259.1870 349.5451 15.55145154  4563"}}, "geometry": {"type": "Point", "coordinates": [170.37186840650418, -20.3027822347126]}}, {"type": "Feature", "properties": {"norad_id": 66815, "name": "STARLINK-35985", "group": "last-30-days", "lat": -21.494116632047042, "lon": 168.77051990732417, "alt_km": 406.00985663726806, "timestamp": "2025-12-22T08:58:19.047456+00:00", "meta": {"OBJECT_NAME": "STARLINK-35985", "OBJECT_ID": "2025-278AA", "EPOCH": "2025-12-22T04:00:01.998720", "MEAN_MOTION": 15.5514562, "ECCENTRICITY": 0.0001329, "INCLINATION": 42.9994, "RA_OF_ASC_NODE": 194.9889, "ARG_OF_PERICENTER": 259.6466, "MEAN_ANOMALY": 347.1688, "EPHEMERIS_TYPE": 0, "CLASSIFICATION_TYPE": "U", "NORAD_CAT_ID": 66815, "ELEMENT_SET_NO": 999, "REV_AT_EPOCH": 456, "BSTAR": -0.033238, "MEAN_MOTION_DOT": -0.02052095, "MEAN_MOTION_DDOT": 0}, "tle": {"line1": "1 66815U 25278AA  25356.16668980 -.02052095  00000+0 -33238-1 0  9999", "line2": "2 66815  42.9994 194.9889 0001329 259.6466 347.1688 15.55145620  4562"}}, "geometry": {"type": "Point", "coordinates": [168.77051990732417, -21.494116632047042]}}, {"type": "Feature", "properties": {"norad_id": 66816, "name": "STARLINK-36098", "group": "last-30-days", "lat": -26.090956734921676, "lon": 162.08520672829152, "alt_km": 406.2334895389704, "timestamp": "2025-12-22T08:58:19.047466+00:00", "meta": {"OBJECT_NAME": "STARLINK-36098", "OBJECT_ID": "2025-278AB", "EPOCH": "2025-12-22T04:00:01.998720", "MEAN_MOTION": 15.55141489, "ECCENTRICITY": 0.0001351, "INCLINATION": 42.9993, "RA_OF_ASC_NODE": 195.0084, "ARG_OF_PERICENTER": 260.3913, "MEAN_ANOMALY": 338.7568, "EPHEMERIS_TYPE": 0, "CLASSIFICATION_TYPE": "U", "NORAD_CAT_ID": 66816, "ELEMENT_SET_NO": 999, "REV_AT_EPOCH": 431, "BSTAR": -0.033133, "MEAN_MOTION_DOT": -0.02046067, "MEAN_MOTION_DDOT": 0}, "tle": {"line1": "1 66816U 25278AB  25356.16668980 -.02046067  00000+0 -33133-1 0  9996", "line2": "2 66816  42.9993 195.0084 0001351 260.3913 338.7568 15.55141489  4317"}}, "geometry": {"type": "Point", "coordinates": [162.08520672829152, -26.090956734921676]}}, {"type": "Feature", "properties": {"norad_id": 66817, "name": "STARLINK-35995", "group": "last-30-days", "lat": -23.83041238442232, "lon": 165.48473715110038, "alt_km": 406.0814602450437, "timestamp": "2025-12-22T08:58:19.047476+00:00", "meta": {"OBJECT_NAME": "STARLINK-35995", "OBJECT_ID": "2025-278AC", "EPOCH": "2025-12-22T04:00:01.998720", "MEAN_MOTION": 15.55148035, "ECCENTRICITY": 0.0001312, "INCLINATION": 42.9991, "RA_OF_ASC_NODE": 194.9988, "ARG_OF_PERICENTER": 262.936, "MEAN_ANOMALY": 340.0408, "EPHEMERIS_TYPE": 0, "CLASSIFICATION_TYPE": "U", "NORAD_CAT_ID": 66817, "ELEMENT_SET_NO": 999, "REV_AT_EPOCH": 447, "BSTAR": -0.033226, "MEAN_MOTION_DOT": -0.02051614, "MEAN_MOTION_DDOT": 0}, "tle": {"line1": "1 66817U 25278AC  25356.16668980 -.02051614  00000+0 -33226-1 0  9994", "line2": "2 66817  42.9991 194.9988 0001312 262.9360 340.0408 15.55148035  4478"}}, "geometry": {"type": "Point", "coordinates": [165.48473715110038, -23.83041238442232]}}, {"type": "Feature", "properties": {"norad_id": 66818, "name": "STARLINK-35994", "group": "last-30-days", "lat": -24.970964539804886, "lon": 163.80036783656092, "alt_km": 406.1176043891519, "timestamp": "2025-12-22T08:58:19.047488+00:00", "meta": {"OBJECT_NAME": "STARLINK-35994", "OBJECT_ID": "2025-278AD", "EPOCH": "2025-12-22T04:00:01.998720", "MEAN_MOTION": 15.55148688, "ECCENTRICITY": 0.0001353, "INCLINATION": 42.9993, "RA_OF_ASC_NODE": 195.0041, "ARG_OF_PERICENTER": 263.4696, "MEAN_ANOMALY": 337.59, "EPHEMERIS_TYPE": 0, "CLASSIFICATION_TYPE": "U", "NORAD_CAT_ID": 66818, "ELEMENT_SET_NO": 999, "REV_AT_EPOCH": 447, "BSTAR": -0.033256, "MEAN_MOTION_DOT": -0.02053322, "MEAN_MOTION_DDOT": 0}, "tle": {"line1": "1 66818U 25278AD  25356.16668980 -.02053322  00000+0 -33256-1 0  9996", "line2": "2 66818  42.9993 195.0041 0001353 263.4696 337.5900 15.55148688  4478"}}, "geometry": {"type": "Point", "coordinates": [163.80036783656092, -24.970964539804886]}}, {"type": "Feature", "properties": {"norad_id": 66819, "name": "STARLINK-35989", "group": "last-30-days", "lat": -22.669927853961475, "lon": 167.1428530437335, "alt_km": 405.9685903185091, "timestamp": "2025-12-22T08:58:19.047498+00:00", "meta": {"OBJECT_NAME": "STARLINK-35989", "OBJECT_ID": "2025-278AE", "EPOCH": "2025-12-22T04:00:01.998720", "MEAN_MOTION": 15.55142754, "ECCENTRICITY": 0.0001375, "INCLINATION": 42.9993, "RA_OF_ASC_NODE": 194.9939, "ARG_OF_PERICENTER": 265.3367, "MEAN_ANOMALY": 339.5632, "EPHEMERIS_TYPE": 0, "CLASSIFICATION_TYPE": "U", "NORAD_CAT_ID": 66819, "ELEMENT_SET_NO": 999, "REV_AT_EPOCH": 447, "BSTAR": -0.033176, "MEAN_MOTION_DOT": -0.02048514, "MEAN_MOTION_DDOT": 0}, "tle": {"line1": "1 66819U 25278AE  25356.16668980 -.02048514  00000+0 -33176-1 0  9995", "line2": "2 66819  42.9993 194.9939 0001375 265.3367 339.5632 15.55142754  4475"}}, "geometry": {"type": "Point", "coordinates": [167.1428530437335, -22.669927853961475]}}]}